{
  "type": "FeatureCollection",
  "features": [
    {
      "type": "Feature",
      "properties": {
        "norad_id": 66401,
        "name": "STARLINK-35668",
        "group": "last-30-days",
        "lat": 29.661790964618238,
        "lon": -55.886844502060484,
        "alt_km": 443.06712572086144,
        "timestamp": "2025-12-09T14:52:24.940236+00:00",
        "meta_object_name": "STARLINK-35668",
        "meta_object_id": "2025-257X",
        "meta_epoch": "2025-12-09T08:00:01.999872",
        "meta_mean_motion": 15.39569356,
        "meta_eccentricity": 0.00014727,
        "meta_inclination": 53.1592,
        "meta_ra_of_asc_node": 280.1868,
        "meta_arg_of_pericenter": 90.4461,
        "meta_mean_anomaly": 159.7049,
        "meta_ephemeris_type": 0,
        "meta_classification_type": "U",
        "meta_norad_cat_id": 66401,
        "meta_element_set_no": 999,
        "meta_rev_at_epoch": 595,
        "meta_bstar": 0.0018768457,
        "meta_mean_motion_dot": 0.00075292,
        "meta_mean_motion_ddot": 0,
        "tle_line1": "1 66401U 25257X   25343.33335648  .00075292  00000+0  18768-2 0  9996",
        "tle_line2": "2 66401  53.1592 280.1868 0001472  90.4461 159.7049 15.39569356  5951"
      },
      "geometry": {
        "type": "Point",
        "coordinates": [
          -55.886844502060484,
          29.661790964618238
        ]
      }
    },
    {
      "type": "Feature",
      "properties": {
        "norad_id": 66402,
        "name": "STARLINK-35644",
        "group": "last-30-days",
        "lat": 9.929742930837001,
        "lon": -73.57010507148856,
        "alt_km": 446.7031926519221,
        "timestamp": "2025-12-09T14:52:24.940249+00:00",
        "meta_object_name": "STARLINK-35644",
        "meta_object_id": "2025-257Y",
        "meta_epoch": "2025-12-09T08:00:01.999872",
        "meta_mean_motion": 15.39555235,
        "meta_eccentricity": 0.00012421,
        "meta_inclination": 53.1596,
        "meta_ra_of_asc_node": 280.2378,
        "meta_arg_of_pericenter": 94.5031,
        "meta_mean_anomaly": 129.9212,
        "meta_ephemeris_type": 0,
        "meta_classification_type": "U",
        "meta_norad_cat_id": 66402,
        "meta_element_set_no": 999,
        "meta_rev_at_epoch": 595,
        "meta_bstar": 0.0020022614,
        "meta_mean_motion_dot": 0.00080366,
        "meta_mean_motion_ddot": 0,
        "tle_line1": "1 66402U 25257Y   25343.33335648  .00080366  00000+0  20023-2 0  9992",
        "tle_line2": "2 66402  53.1596 280.2378 0001242  94.5031 129.9212 15.39555235  5958"
      },
      "geometry": {
        "type": "Point",
        "coordinates": [
          -73.57010507148856,
          9.929742930837001
        ]
      }
    },
    {
      "type": "Feature",
      "properties": {
        "norad_id": 66403,
        "name": "STARLINK-35602",
        "group": "last-30-days",
        "lat": 45.038293396643816,
        "lon": -32.55525435346205,
        "alt_km": 440.6190964013176,
        "timestamp": "2025-12-09T14:52:24.940274+00:00",
        "meta_object_name": "STARLINK-35602",
        "meta_object_id": "2025-257Z",
        "meta_epoch": "2025-12-09T08:00:01.999872",
        "meta_mean_motion": 15.39558811,
        "meta_eccentricity": 0.00011001,
        "meta_inclination": 53.1587,
        "meta_ra_of_asc_node": 280.1387,
        "meta_arg_of_pericenter": 88.6908,
        "meta_mean_anomaly": 185.3973,
        "meta_ephemeris_type": 0,
        "meta_classification_type": "U",
        "meta_norad_cat_id": 66403,
        "meta_element_set_no": 999,
        "meta_rev_at_epoch": 595,
        "meta_bstar": 0.0019050831,
        "meta_mean_motion_dot": 0.00076415,
        "meta_mean_motion_ddot": 0,
        "tle_line1": "1 66403U 25257Z   25343.33335648  .00076415  00000+0  19051-2 0  9992",
        "tle_line2": "2 66403  53.1587 280.1387 0001100  88.6908 185.3973 15.39558811  5951"
      },
      "geometry": {
        "type": "Point",
        "coordinates": [
          -32.55525435346205,
          45.038293396643816
        ]
      }
    },
    {
      "type": "Feature",
      "properties": {
        "norad_id": 66404,
        "name": "STARLINK-35691",
        "group": "last-30-days",
        "lat": 45.987949112008955,
        "lon": -30.31435538897287,
        "alt_km": 440.4860920538149,
        "timestamp": "2025-12-09T14:52:24.940287+00:00",
        "meta_object_name": "STARLINK-35691",
        "meta_object_id": "2025-257AA",
        "meta_epoch": "2025-12-09T08:00:01.999872",
        "meta_mean_motion": 15.39559586,
        "meta_eccentricity": 0.00010667,
        "meta_inclination": 53.1589,
        "meta_ra_of_asc_node": 280.1343,
        "meta_arg_of_pericenter": 88.1815,
        "meta_mean_anomaly": 187.7405,
        "meta_ephemeris_type": 0,
        "meta_classification_type": "U",
        "meta_norad_cat_id": 66404,
        "meta_element_set_no": 999,
        "meta_rev_at_epoch": 595,
        "meta_bstar": 0.001874161,
        "meta_mean_motion_dot": 0.00075158,
        "meta_mean_motion_ddot": 0,
        "tle_line1": "1 66404U 25257AA  25343.33335648  .00075158  00000+0  18742-2 0  9992",
        "tle_line2": "2 66404  53.1589 280.1343 0001066  88.1815 187.7405 15.39559586  5955"
      },
      "geometry": {
        "type": "Point",
        "coordinates": [
          -30.31435538897287,
          45.987949112008955
        ]
      }
    },
    {
      "type": "Feature",
      "properties": {
        "norad_id": 66405,
        "name": "STARLINK-35683",
        "group": "last-30-days",
        "lat": 53.127802445848594,
        "lon": 7.100663968514474,
        "alt_km": 434.4487835994223,
        "timestamp": "2025-12-09T14:52:24.940299+00:00",
        "meta_object_name": "STARLINK-35683",
        "meta_object_id": "2025-257AB",
        "meta_epoch": "2025-12-09T08:00:01.999872",
        "meta_mean_motion": 15.42272427,
        "meta_eccentricity": 0.00016923,
        "meta_inclination": 53.1585,
        "meta_ra_of_asc_node": 280.0883,
        "meta_arg_of_pericenter": 93.7462,
        "meta_mean_anomaly": 204.9641,
        "meta_ephemeris_type": 0,
        "meta_classification_type": "U",
        "meta_norad_cat_id": 66405,
        "meta_element_set_no": 999,
        "meta_rev_at_epoch": 579,
        "meta_bstar": -0.047427424,
        "meta_mean_motion_dot": -0.01862119,
        "meta_mean_motion_ddot": 0,
        "tle_line1": "1 66405U 25257AB  25343.33335648 -.01862119  00000+0 -47427-1 0  9998",
        "tle_line2": "2 66405  53.1585 280.0883 0001692  93.7462 204.9641 15.42272427  5791"
      },
      "geometry": {
        "type": "Point",
        "coordinates": [
          7.100663968514474,
          53.127802445848594
        ]
      }
    },
    {
      "type": "Feature",
      "properties": {
        "norad_id": 66406,
        "name": "STARLINK-34840",
        "group": "last-30-days",
        "lat": 42.59877706421474,
        "lon": 55.08254325327467,
        "alt_km": 411.6176298112259,
        "timestamp": "2025-12-09T14:52:24.940310+00:00",
        "meta_object_name": "STARLINK-34840",
        "meta_object_id": "2025-257AC",
        "meta_epoch": "2025-12-09T03:30:43.394976",
        "meta_mean_motion": 15.49354882,
        "meta_eccentricity": 0.00015279,
        "meta_inclination": 53.1583,
        "meta_ra_of_asc_node": 280.9311,
        "meta_arg_of_pericenter": 119.5894,
        "meta_mean_anomaly": 240.5267,
        "meta_ephemeris_type": 0,
        "meta_classification_type": "U",
        "meta_norad_cat_id": 66406,
        "meta_element_set_no": 999,
        "meta_rev_at_epoch": 576,
        "meta_bstar": 0.0021272153,
        "meta_mean_motion_dot": 0.00119885,
        "meta_mean_motion_ddot": 0,
        "tle_line1": "1 66406U 25257AC  25343.14633559  .00119885  00000+0  21272-2 0  9993",
        "tle_line2": "2 66406  53.1583 280.9311 0001527 119.5894 240.5267 15.49354882  5768"
      },
      "geometry": {
        "type": "Point",
        "coordinates": [
          55.08254325327467,
          42.59877706421474
        ]
      }
    },
    {
      "type": "Feature",
      "properties": {
        "norad_id": 66407,
        "name": "STARLINK-35686",
        "group": "last-30-days",
        "lat": 49.7362548324906,
        "lon": 36.41856534370815,
        "alt_km": 426.2137694947578,
        "timestamp": "2025-12-09T14:52:24.940321+00:00",
        "meta_object_name": "STARLINK-35686",
        "meta_object_id": "2025-257AD",
        "meta_epoch": "2025-12-09T08:00:01.999872",
        "meta_mean_motion": 15.45379308,
        "meta_eccentricity": 0.00013219,
        "meta_inclination": 53.1584,
        "meta_ra_of_asc_node": 280.058,
        "meta_arg_of_pericenter": 105.5879,
        "meta_mean_anomaly": 208.3933,
        "meta_ephemeris_type": 0,
        "meta_classification_type": "U",
        "meta_norad_cat_id": 66407,
        "meta_element_set_no": 999,
        "meta_rev_at_epoch": 595,
        "meta_bstar": -0.045180463,
        "meta_mean_motion_dot": -0.01960662,
        "meta_mean_motion_ddot": 0,
        "tle_line1": "1 66407U 25257AD  25343.33335648 -.01960662  00000+0 -45180-1 0  9996",
        "tle_line2": "2 66407  53.1584 280.0580 0001321 105.5879 208.3933 15.45379308  5958"
      },
      "geometry": {
        "type": "Point",
        "coordinates": [
          36.41856534370815,
          49.7362548324906
        ]
      }
    }
  ]
}